OBJECT_NAME,OBJECT_ID,EPOCH,MEAN_MOTION,ECCENTRICITY,INCLINATION,RA_OF_ASC_NODE,ARG_OF_PERICENTER,MEAN_ANOMALY,EPHEMERIS_TYPE,CLASSIFICATION_TYPE,NORAD_CAT_ID,ELEMENT_SET_NO,REV_AT_EPOCH,BSTAR,MEAN_MOTION_DOT,MEAN_MOTION_DDOT
TIANMU-1 20,2023-208B,2026-07-24T06:27:08.379936,15.33281970,.00071727,97.4465,322.4512,179.4818,180.6433,0,U,58661,999,14310,.3576268E-3,.11435E-3,0
TIANMU-1 21,2023-208C,2026-07-24T06:22:07.669056,15.35689616,.00075031,97.4526,325.2919,172.1040,188.0323,0,U,58662,999,14325,.3508818E-3,.12112E-3,0
TIANMU-1 22,2023-208D,2026-07-24T07:40:41.792160,15.31534580,.0003613,97.4519,321.7321,182.9106,177.2115,0,U,58663,999,14301,.34125089E-3,.10318E-3,0
TIANMU-1 15,2024-004A,2026-07-24T07:43:22.327680,15.26989920,.00068532,97.4675,31.5142,192.5209,167.5860,0,U,58700,999,14144,.25719823E-3,.6743E-4,0
TIANMU-1 16,2024-004B,2026-07-24T07:27:18.756864,15.27094354,.00051009,97.4623,30.7148,205.9112,154.1872,0,U,58701,999,14144,.26605862E-3,.6999E-4,0
TIANMU-1 17,2024-004C,2026-07-24T07:06:25.619040,15.27091640,.00045072,97.4651,31.1987,210.6281,149.4696,0,U,58702,999,14143,.26629395E-3,.7004E-4,0
TIANMU-1 18,2024-004D,2026-07-24T06:32:43.871136,15.27004448,.00045886,97.4668,31.4389,187.5550,172.5620,0,U,58703,999,14143,.27155018E-3,.7125E-4,0
INSAT-3DS,2024-033A,2026-07-24T02:44:26.740032,1.00273461,.0001293,0.0697,261.6306,217.6300,305.7408,0,U,58990,999,4743,0,-.151E-5,0
METEOR-M2 4,2024-039A,2026-07-24T07:46:30.797184,14.22432947,.00081744,98.7040,164.1597,66.1231,294.0802,0,U,59051,999,12454,.29892452E-4,.23E-6,0
GOES 19,2024-119A,2026-07-24T05:01:22.033056,1.00271902,.00003435,0.0208,120.7206,49.7908,131.5702,0,U,60133,999,733,0,-.243E-5,0
MTG-S1,2025-143A,2026-07-24T06:05:27.562272,1.00276228,.00031685,0.5801,347.1371,254.8322,151.0684,0,U,64723,999,379,0,0,0
METOP-SGA1,2025-172A,2026-07-24T04:42:43.037280,14.21503574,.00014651,98.6621,264.1659,90.3173,269.8172,0,U,65159,999,4904,.34698358E-4,.33E-6,0
FENGYUN 3H,2025-219A,2026-07-24T05:55:53.184576,14.19925972,.000095,98.6771,145.2970,63.9149,296.2126,0,U,65815,999,4264,.37840198E-4,.37E-6,0
