TIANMU-1 20             
1 58661U 23208B   26205.26884699  .00011435  00000+0  35763-3 0  9998
2 58661  97.4465 322.4512 0007172 179.4818 180.6433 15.33281970143100
TIANMU-1 21             
1 58662U 23208C   26205.26536654  .00012112  00000+0  35088-3 0  9997
2 58662  97.4526 325.2919 0007503 172.1040 188.0323 15.35689616143253
TIANMU-1 22             
1 58663U 23208D   26205.31992815  .00010318  00000+0  34125-3 0  9996
2 58663  97.4519 321.7321 0003613 182.9106 177.2115 15.31534580143012
TIANMU-1 15             
1 58700U 24004A   26205.32178620  .00006743  00000+0  25720-3 0  9992
2 58700  97.4675  31.5142 0006853 192.5209 167.5860 15.26989920141444
TIANMU-1 16             
1 58701U 24004B   26205.31063376  .00006999  00000+0  26606-3 0  9990
2 58701  97.4623  30.7148 0005100 205.9112 154.1872 15.27094354141445
TIANMU-1 17             
1 58702U 24004C   26205.29612985  .00007004  00000+0  26629-3 0  9997
2 58702  97.4651  31.1987 0004507 210.6281 149.4696 15.27091640141438
TIANMU-1 18             
1 58703U 24004D   26205.27272999  .00007125  00000+0  27155-3 0  9992
2 58703  97.4668  31.4389 0004588 187.5550 172.5620 15.27004448141430
INSAT-3DS               
1 58990U 24033A   26205.11419838 -.00000151  00000+0  00000+0 0  9999
2 58990   0.0697 261.6306 0001293 217.6300 305.7408  1.00273461 47432
METEOR-M2 4             
1 59051U 24039A   26205.32396756  .00000023  00000+0  29892-4 0  9992
2 59051  98.7040 164.1597 0008174  66.1231 294.0802 14.22432947124541
GOES 19                 
1 60133U 24119A   26205.20928279 -.00000243  00000+0  00000+0 0  9992
2 60133   0.0208 120.7206 0000343  49.7908 131.5702  1.00271902  7334
MTG-S1                  
1 64723U 25143A   26205.25379123  .00000000  00000+0  00000+0 0  9992
2 64723   0.5801 347.1371 0003168 254.8322 151.0684  1.00276228  3790
METOP-SGA1              
1 65159U 25172A   26205.19633145  .00000033  00000+0  34698-4 0  9999
2 65159  98.6621 264.1659 0001465  90.3173 269.8172 14.21503574 49046
FENGYUN 3H              
1 65815U 25219A   26205.24714334  .00000037  00000+0  37840-4 0  9992
2 65815  98.6771 145.2970 0000950  63.9149 296.2126 14.19925972 42642
